NORAD_CAT_ID,OBJECT_NAME,OBJECT_TYPE,EPOCH,MEAN_MOTION,ECCENTRICITY,INCLINATION,RA_OF_ASC_NODE,ARG_OF_PERICENTER,MEAN_ANOMALY,BSTAR,MEAN_MOTION_DOT,MEAN_MOTION_DDOT,TLE_LINE0,TLE_LINE1,TLE_LINE2,SEMIMAJOR_AXIS,PERIOD,APOGEE,PERIGEE,DECAYED
54192.0,STARLINK-5268,PAYLOAD,2022-12-26 07:27:59,15.730519400000002,0.0004064,53.2142,210.5786,30.2654,329.86,-0.00016839,-0.00024051,0.0,0 STARLINK-5268,1 54192U 22141AM  22360.31110151 -.00024051  00000-0 -16839-3 0  9991,2 54192  53.2142 210.5786 0004064  30.2654 329.8600 15.73051940  9599,6728.316999999999,91.542,352.917,347.4480000000001,0.0
54192.0,STARLINK-5268,PAYLOAD,2022-12-27 00:14:25,15.72960636,0.0003174,53.2144,207.1212,345.3471,14.7456,-0.00021807,-0.00030811,0.0,0 STARLINK-5268,1 54192U 22141AM  22361.01002208 -.00030811  00000-0 -21807-3 0  9994,2 54192  53.2144 207.1212 0003174 345.3471  14.7456 15.72960636  9707,6728.578,91.547,352.57800000000015,348.307,0.0
54192.0,STARLINK-5268,PAYLOAD,2022-12-27 03:18:37,15.71704103,0.0004706,53.2138,206.498,278.9115,81.1372,-0.0020794,-0.00266171,0.0,0 STARLINK-5268,1 54192U 22141AM  22361.13793615 -.00266171  00000-0 -20794-2 0  9999,2 54192  53.2138 206.4980 0004706 278.9115  81.1372 15.71704103  9723,6732.163000000001,91.62,357.19699999999995,350.86,0.0
54192.0,STARLINK-5268,PAYLOAD,2022-12-28 06:00:00,15.68015246,6.720000000000001e-05,53.2169,201.0108,35.6793,132.1157,-0.011517,-0.01175237,0.0,0 STARLINK-5268,1 54192U 22141AM  22362.25001157 -.01175237  00000-0 -11517-1 0  9991,2 54192  53.2169 201.0108 0000672  35.6793 132.1157 15.68015246  9893,6742.718000000003,91.836,365.036,364.13,0.0
54192.0,STARLINK-5268,PAYLOAD,2022-12-28 14:00:01,15.67204393,0.0001245,53.2169,199.3742,63.9014,186.0597,-0.011904,-0.01175163,0.0,0 STARLINK-5268,1 54192U 22141AM  22362.58334491 -.01175163  00000-0 -11904-1 0  9995,2 54192  53.2169 199.3742 0001245  63.9014 186.0597 15.67204393  1309,6745.043000000002,91.883,367.74800000000016,366.069,0.0
54192.0,STARLINK-5268,PAYLOAD,2022-12-28 22:00:00,15.66359953,9.9e-05,53.2171,197.7425,85.3753,245.7914,-0.0118459999999999,-0.01133953,0.0,0 STARLINK-5268,1 54192U 22141AM  22362.91667824 -.01133953  00000-0 -11846-1 0  9997,2 54192  53.2171 197.7425 0000990  85.3753 245.7914 15.66359953  1304,6747.467,91.933,370.0,368.664,0.0
54192.0,STARLINK-5268,PAYLOAD,2022-12-29 06:00:02,15.65556311,0.0001137999999999,53.2168,196.109,52.7224,358.7189,-0.012402,-0.01147785,0.0,0 STARLINK-5268,1 54192U 22141AM  22363.25002315 -.01147785  00000-0 -12402-1 0  9990,2 54192  53.2168 196.1090 0001138  52.7224 358.7189 15.65556311 10054,6749.776,91.98,372.409,370.87300000000016,0.0
54192.0,STARLINK-5268,PAYLOAD,2022-12-29 14:00:01,15.64733955,0.0001341999999999,53.217,194.4783,61.4211,69.1947,-0.012655,-0.01134538,0.0,0 STARLINK-5268,1 54192U 22141AM  22363.58334491 -.01134538  00000-0 -12655-1 0  9991,2 54192  53.2170 194.4783 0001342  61.4211  69.1947 15.64733955  1300,6752.141,92.028,374.912,373.1,0.0
54192.0,STARLINK-5268,PAYLOAD,2022-12-30 06:00:00,15.63109532,0.0001099,53.2172,191.2248,65.5867,220.566,-0.013568,-0.01139614,0.0,0 STARLINK-5268,1 54192U 22141AM  22364.25001157 -.01139614  00000-0 -13568-1 0  9990,2 54192  53.2172 191.2248 0001099  65.5867 220.5660 15.63109532 10205,6756.818,92.124,379.426,377.941,0.0
54192.0,STARLINK-5268,PAYLOAD,2022-12-30 14:00:01,15.6230166,0.0001250999999999,53.217,189.6006,48.5718,313.88,-0.0141,-0.01146527,0.0,0 STARLINK-5268,1 54192U 22141AM  22364.58334491 -.01146527  00000-0 -14100-1 0  9990,2 54192  53.2170 189.6006 0001251  48.5718 313.8800 15.62301660  1300,6759.147,92.172,381.858,380.167,0.0
54192.0,STARLINK-5268,PAYLOAD,2022-12-31 06:00:00,15.60664455,0.0001319,53.2173,186.3584,59.1422,92.9851,-0.0148259999999999,-0.01132463,0.0,0 STARLINK-5268,1 54192U 22141AM  22365.25001157 -.01132463  00000-0 -14826-1 0  9994,2 54192  53.2173 186.3584 0001319  59.1422  92.9851 15.60664455 10362,6763.874,92.268,386.631,384.846,0.0
54192.0,STARLINK-5268,PAYLOAD,2022-12-31 14:00:01,15.598536,0.0001306,53.217,184.7405,61.3374,164.1568,-0.015346,-0.01135703,0.0,0 STARLINK-5268,1 54192U 22141AM  22365.58334491 -.01135703  00000-0 -15346-1 0  9998,2 54192  53.2170 184.7405 0001306  61.3374 164.1568 15.59853600  1301,6766.217,92.316,388.966,387.199,0.0
54192.0,STARLINK-5268,PAYLOAD,2022-12-31 22:00:00,15.59039783,0.0001151,53.217,183.1265,75.3583,222.5254,-0.01583,-0.01135477,0.0,0 STARLINK-5268,1 54192U 22141AM  22365.91667824 -.01135477  00000-0 -15830-1 0  9990,2 54192  53.2170 183.1265 0001151  75.3583 222.5254 15.59039783  1302,6768.571999999999,92.365,391.216,389.658,0.0
54192.0,STARLINK-5268,PAYLOAD,2023-01-01 14:00:01,15.57425561,0.0001288,53.2167,179.8982,49.5792,30.1477,-0.01713,-0.01153717,0.0,0 STARLINK-5268,1 54192U 22141AM  23001.58334491 -.01153717  00000-0 -17130-1 0  9994,2 54192  53.2167 179.8982 0001288  49.5792  30.1477 15.57425561 10572,6773.248000000001,92.46,395.985,394.241,0.0
54192.0,STARLINK-5268,PAYLOAD,2023-01-02 00:00:00,15.56392415,0.0001193999999999,53.2172,177.8868,74.1891,182.213,-0.01741,-0.01130322,0.0,0 STARLINK-5268,1 54192U 22141AM  23002.00001157 -.01130322  00000-0 -17410-1 0  9990,2 54192  53.2172 177.8868 0001194  74.1891 182.2130 15.56392415  1305,6776.245,92.522,398.919,397.301,0.0
54192.0,STARLINK-5268,PAYLOAD,2023-01-02 14:00:01,15.54982637,0.0001213,53.217,175.0737,56.4894,228.6757,-0.018699,-0.01149815,0.0,0 STARLINK-5268,1 54192U 22141AM  23002.58334491 -.01149815  00000-0 -18699-1 0  9990,2 54192  53.2170 175.0737 0001213  56.4894 228.6757 15.54982637 10732,6780.34,92.606,403.028,401.383,0.0
54192.0,STARLINK-5268,PAYLOAD,2023-01-02 22:00:00,15.54176174,0.0001167999999999,53.2169,173.4712,50.9725,300.7116,-0.019436,-0.01159038,0.0,0 STARLINK-5268,1 54192U 22141AM  23002.91667824 -.01159038  00000-0 -19436-1 0  9994,2 54192  53.2169 173.4712 0001168  50.9725 300.7116 15.54176174  1301,6782.685,92.654,405.343,403.758,0.0
54192.0,STARLINK-5268,PAYLOAD,2023-01-03 14:00:01,15.52539355,0.0001492,53.2168,170.2667,43.9734,77.8304,-0.020398,-0.01147095,0.0,0 STARLINK-5268,1 54192U 22141AM  23003.58334491 -.01147095  00000-0 -20398-1 0  9998,2 54192  53.2168 170.2667 0001492  43.9734  77.8304 15.52539355 10882,6787.4519999999975,92.751,410.33,408.304,0.0
54192.0,STARLINK-5268,PAYLOAD,2023-01-04 14:00:01,15.50062501,0.0001672,53.2166,165.4773,49.4602,260.2644,-0.0048371,-0.00267509,0.0,0 STARLINK-5268,1 54192U 22141AM  23004.58335648 -.00267509  00000-0 -48371-2 0  9998,2 54192  53.2166 165.4773 0001672  49.4602 260.2644 15.50062501 11045,6794.68,92.899,417.681,415.409,0.0
54192.0,STARLINK-5268,PAYLOAD,2023-01-04 22:00:00,15.49844105,0.0001252999999999,53.212,163.8904,20.9929,349.5559,0.0011509,0.00065321,0.0,0 STARLINK-5268,1 54192U 22141AM  23004.91667824  .00065321  00000-0  11509-2 0  9998,2 54192  53.2120 163.8904 0001253  20.9929 349.5559 15.49844105  1304,6795.319,92.913,418.035,416.332,0.0
54192.0,STARLINK-5268,PAYLOAD,2023-01-05 06:00:00,15.49862034,0.0001052,53.2125,162.2952,25.1598,46.2888,0.0010334,0.00058592,0.0,0 STARLINK-5268,1 54192U 22141AM  23005.25001157  .00058592  00000-0  10334-2 0  9994,2 54192  53.2125 162.2952 0001052  25.1598  46.2888 15.49862034 11141,6795.266,92.911,417.846,416.416,0.0
54192.0,STARLINK-5268,PAYLOAD,2023-01-05 14:00:01,15.49914063,0.0001214,53.2127,160.7028,26.9881,105.3628,-0.00018977,-0.00011217,0.0,0 STARLINK-5268,1 54192U 22141AM  23005.58334491 -.00011217  00000-0 -18977-3 0  9997,2 54192  53.2127 160.7028 0001214  26.9881 105.3628 15.49914063  1300,6795.114000000001,92.908,417.804,416.154,0.0
54192.0,STARLINK-5268,PAYLOAD,2023-01-05 20:00:01,15.49886638,0.0001405,53.2128,159.5091,22.6973,65.3672,0.0010915,0.00061993,0.0,0 STARLINK-5268,1 54192U 22141AM  23005.83334491  .00061993  00000-0  10915-2 0  9992,2 54192  53.2128 159.5091 0001405  22.6973  65.3672 15.49886638  1304,6795.194,92.91,418.014,416.105,0.0
54192.0,STARLINK-5268,PAYLOAD,2023-01-06 06:00:00,15.49921863,0.0001281,53.2127,157.5154,25.4393,228.8298,0.0010129,0.00057535,0.0,0 STARLINK-5268,1 54192U 22141AM  23006.25001157  .00057535  00000-0  10129-2 0  9993,2 54192  53.2127 157.5154 0001281  25.4393 228.8298 15.49921863 11299,6795.090999999999,92.908,417.827,416.086,0.0
54192.0,STARLINK-5268,PAYLOAD,2023-01-06 14:00:01,15.49965262,0.0001494,53.2127,155.9233,31.4863,283.761,-0.0015675,-0.00088668,0.0,0 STARLINK-5268,1 54192U 22141AM  23006.58334491 -.00088668  00000-0 -15675-2 0  9993,2 54192  53.2127 155.9233 0001494  31.4863 283.7610 15.49965262 11350,6794.965,92.905,417.845,415.814,0.0
54192.0,STARLINK-5268,PAYLOAD,2023-01-06 22:00:00,15.49920531,0.0001747,53.2123,154.3309,30.126,346.0884,-2.5119e-05,-1.879e-05,0.0,0 STARLINK-5268,1 54192U 22141AM  23006.91667824 -.00001879  00000-0 -25119-4 0  9994,2 54192  53.2123 154.3309 0001747  30.1260 346.0884 15.49920531 11403,6795.095,92.908,418.147,415.773,0.0
54192.0,STARLINK-5268,PAYLOAD,2023-01-07 06:00:00,15.49864926,0.0001625,53.2124,152.7359,41.6609,35.519,0.00033659,0.00018684,0.0,0 STARLINK-5268,1 54192U 22141AM  23007.25001157  .00018684  00000-0  33659-3 0  9990,2 54192  53.2124 152.7359 0001625  41.6609  35.5190 15.49864926 11450,6795.258000000002,92.911,418.227,416.019,0.0
54192.0,STARLINK-5268,PAYLOAD,2023-01-07 22:00:00,15.49834549,0.0002039,53.2124,149.5517,42.7177,156.2344,0.00055412,0.00031067,0.0,0 STARLINK-5268,1 54192U 22141AM  23007.91667824  .00031067  00000-0  55412-3 0  9993,2 54192  53.2124 149.5517 0002039  42.7177 156.2344 15.49834549 11553,6795.347,92.913,418.597,415.826,0.0
54192.0,STARLINK-5268,PAYLOAD,2023-01-08 00:00:00,15.49858521,0.0001998,53.2125,149.1528,43.5081,260.6531,-0.00021041,-0.00012364,0.0,0 STARLINK-5268,1 54192U 22141AM  23008.00001157 -.00012364  00000-0 -21041-3 0  9997,2 54192  53.2125 149.1528 0001998  43.5081 260.6531 15.49858521  1304,6795.276999999999,92.912,418.499,415.784,0.0
